CHUANGXIN 1-02 (CX-1-02)
1 33434U 08056B   26193.20413372 -.00000131  00000+0 -33658-4 0  9994
2 33434  98.6135 219.2203 0015458  68.6071 291.6759 14.30157560922195
STARS (KUKAI)           
1 33498U 09002G   26193.10335894  .00001533  00000+0  14254-3 0  9992
2 33498  98.1554 141.4328 0009904  87.5755 272.6598 14.95915731942204
KKS-1 (KISEKI)          
1 33499U 09002H   26193.15111286  .00000677  00000+0  89727-4 0  9991
2 33499  98.1178 115.9889 0007173 199.3945 160.6996 14.83184830939898
UK-DMC 2                
1 35683U 09041C   26193.17205788  .00000120  00000+0  24592-4 0  9996
2 35683  97.8859 327.5325 0001519  99.6133 260.5249 14.76090773910256
OCEANSAT-2              
1 35931U 09051A   26193.21967170 -.00000140  00000+0 -69744-4 0  9990
2 35931  98.2318 177.5720 0017149 162.0956 198.0819 13.99656419882832
SWISSCUBE               
1 35932U 09051B   26193.20904170  .00000502  00000+0  10865-3 0  9990
2 35932  98.4012 101.5313 0007715 127.0520 233.1388 14.62527427892815
BEESAT-1                
1 35933U 09051C   26192.68394636  .00000417  00000+0  93456-4 0  9995
2 35933  98.3940 100.5811 0005925 139.0777 221.0870 14.61758535892766
ITUPSAT1                
1 35935U 09051E   26192.97035851  .00000388  00000+0  90106-4 0  9996
2 35935  98.4023 100.0372 0007861 152.4089 207.7529 14.60475983892353
DMSP 5D-3 F18 (USA 210) 
1 35951U 09057A   26193.17442580  .00000165  00000+0  10864-3 0  9999
2 35951  98.9054 173.8911 0011048 173.9451 186.1857 14.14910371863121
PROBA-2                 
1 36037U 09059B   26192.44940836  .00000104  00000+0  34681-4 0  9990
2 36037  98.2457  15.4667 0012742 200.5903 159.4782 14.54872679885055
YAOGAN-7                
1 36110U 09069A   26193.13735877  .00000221  00000+0  37818-4 0  9992
2 36110  98.0039  78.8467 0023690 321.6496  38.3029 14.78033793893317
XIWANG-1 (HOPE-1)       
1 36122U 09072B   26193.17159291 -.00000214  00000+0 -44482-3 0  9991
2 36122 100.4028 146.6056 0007441 171.5395 188.5845 13.16438625796297
COSMOS 2463             
1 36519U 10017A   26193.05561213  .00000049  00000+0  37201-4 0  9996
2 36519  82.9584 231.4343 0037417  62.3540 315.6405 13.71667084811348
CARTOSAT-2B             
1 36795U 10035A   26193.17487425  .00000573  00000+0  85297-4 0  9997
2 36795  97.9946 243.5628 0012538 107.9716 252.2862 14.78615851863545
TISAT 1                 
1 36799U 10035E   26192.80356677  .00012017  00000+0  38373-3 0  9992
2 36799  98.0706 141.5552 0004240 126.9872 233.1757 15.32645486871473
YAOGAN-10               
1 36834U 10038A   26193.21352977  .00000503  00000+0  64703-4 0  9994
2 36834  97.8976 216.4181 0001611  82.5906   6.0136 14.85421689860923
SHIJIAN-6 04B (SJ-6 04B)
1 37180U 10051B   26193.18275811  .00000294  00000+0  29054-4 0  9998
2 37180  97.8743 198.8597 0007372 221.8158 138.2502 14.99383415859428
FENGYUN 3B              
1 37214U 10059A   26193.20187605  .00000236  00000+0  14542-3 0  9991
2 37214  98.9615 239.3207 0023079 114.8017 332.6984 14.14847303810960
COSMO-SKYMED 4          
1 37216U 10060A   26193.15259068  .00000489  00000+0  67985-4 0  9992
2 37216  97.8894  16.3915 0001530  83.4209 276.7178 14.82148592848266
O/OREOS (USA 219)       
1 37224U 10062C   26192.97406233  .00001204  00000+0  11921-3 0  9994
2 37224  71.9695  24.1866 0013807  11.3955 348.7525 14.93844125120342
RESOURCESAT-2           
1 37387U 11015A   26193.14529837  .00000010  00000+0  24924-4 0  9991
2 37387  98.7633 260.4133 0011416 179.6595 180.4592 14.21605413789729
YOUTHSAT                
1 37388U 11015B   26192.86044001  .00000087  00000+0  54236-4 0  9998
2 37388  98.3700 165.8042 0013161 269.9083 147.1277 14.25639764791152
APRIZESAT 6             
1 37793U 11044F   26192.73832200  .00000397  00000+0  63524-4 0  9996
2 37793  98.2343 103.7374 0043339   9.2855  45.5114 14.76953608800777
JUGNU                   
1 37839U 11058B   26193.07075447  .00000355  00000+0  45779-4 0  9998
2 37839  19.9591 157.2468 0018468 351.9537  74.6963 14.13782974762555
SRMSAT                  
1 37841U 11058D   26193.23869166  .00000350  00000+0  45879-4 0  9994
2 37841  19.9714 267.8421 0011854 118.8974 271.3920 14.11580711761369
